NORAD_CAT_ID,OBJECT_NAME,OBJECT_TYPE,EPOCH,MEAN_MOTION,ECCENTRICITY,INCLINATION,RA_OF_ASC_NODE,ARG_OF_PERICENTER,MEAN_ANOMALY,BSTAR,MEAN_MOTION_DOT,MEAN_MOTION_DDOT,TLE_LINE0,TLE_LINE1,TLE_LINE2,SEMIMAJOR_AXIS,PERIOD,APOGEE,PERIGEE,DECAYED
49758.0,STARLINK-3194,PAYLOAD,2021-12-08 14:00:01,15.40547159,0.0001475,53.2155,290.7415,52.1652,222.7206,-0.001147,-0.00047414,0.0,0 STARLINK-3194,1 49758U 21115AL  21342.58334491 -.00047414  00000-0 -11470-2 0  9999,2 49758  53.2155 290.7415 0001475  52.1652 222.7206 15.40547159  2130,6822.63,93.473,445.502,443.489,0.0
49758.0,STARLINK-3194,PAYLOAD,2021-12-08 22:00:00,15.40504878,0.0001426,53.2159,289.1701,54.5045,269.959,-0.0009985,-0.00041302,0.0,0 STARLINK-3194,1 49758U 21115AL  21342.91667824 -.00041302  00000-0 -99850-3 0  9994,2 49758  53.2159 289.1701 0001426  54.5045 269.9590 15.40504878  2187,6822.755,93.476,445.593,443.647,0.0
49758.0,STARLINK-3194,PAYLOAD,2021-12-09 22:00:00,15.40457211,0.0001441999999999,53.2154,284.459,49.3397,63.9123,-5.4956e-05,-2.662e-05,0.0,0 STARLINK-3194,1 49758U 21115AL  21343.91667824 -.00002662  00000-0 -54956-4 0  9990,2 49758  53.2154 284.4590 0001442  49.3397  63.9123 15.40457211  1536,6822.896,93.479,445.745,443.777,0.0
49758.0,STARLINK-3194,PAYLOAD,2021-12-10 14:00:01,15.40473376,0.0001511,53.2147,281.3178,47.9946,164.4241,-0.00053519,-0.00022356,0.0,0 STARLINK-3194,1 49758U 21115AL  21344.58334491 -.00022356  00000-0 -53519-3 0  9990,2 49758  53.2147 281.3178 0001511  47.9946 164.4241 15.40473376  1636,6822.848000000001,93.478,445.744,443.682,0.0
49758.0,STARLINK-3194,PAYLOAD,2021-12-10 22:00:00,15.40468051,0.0001587,53.2146,279.7475,53.2198,208.792,-0.00036774,-0.00015499,0.0,0 STARLINK-3194,1 49758U 21115AL  21344.91667824 -.00015499  00000-0 -36774-3 0  9990,2 49758  53.2146 279.7475 0001587  53.2198 208.7920 15.40468051  1683,6822.864000000001,93.478,445.812,443.646,0.0
49758.0,STARLINK-3194,PAYLOAD,2021-12-11 00:00:00,15.4046814,0.0001655,53.2145,279.3553,50.894,313.5161,-0.00053558,-0.00022369,0.0,0 STARLINK-3194,1 49758U 21115AL  21345.00001157 -.00022369  00000-0 -53558-3 0  9995,2 49758  53.2145 279.3553 0001655  50.8940 313.5161 15.40468140  2502,6822.864000000001,93.478,445.858,443.599,0.0
49758.0,STARLINK-3194,PAYLOAD,2021-12-11 14:00:01,15.40467081,0.000157,53.214,276.606,52.923,308.272,0.00015142,5.829e-05,0.0,0 STARLINK-3194,1 49758U 21115AL  21345.58334491  .00005829  00000-0  15142-3 0  9995,2 49758  53.2140 276.6060 0001570  52.9230 308.2720 15.40467081  2595,6822.8669999999975,93.478,445.80300000000005,443.661,0.0
49758.0,STARLINK-3194,PAYLOAD,2021-12-11 22:00:00,15.40490228,0.0001546,53.2141,275.0356,53.723,357.0754,-0.00082616,-0.00034258,0.0,0 STARLINK-3194,1 49758U 21115AL  21345.91667824 -.00034258  00000-0 -82616-3 0  9991,2 49758  53.2141 275.0356 0001546  53.7230 357.0754 15.40490228  1844,6822.7980000000025,93.477,445.718,443.609,0.0
49758.0,STARLINK-3194,PAYLOAD,2021-12-12 14:00:01,15.40454823,0.0001548,53.214,271.8938,52.8752,97.1397,0.00010512,3.921e-05,0.0,0 STARLINK-3194,1 49758U 21115AL  21346.58334491  .00003921  00000-0  10512-3 0  9993,2 49758  53.2140 271.8938 0001548  52.8752  97.1397 15.40454823  1941,6822.903,93.479,445.824,443.712,0.0
49758.0,STARLINK-3194,PAYLOAD,2021-12-12 22:00:01,15.40467512,0.0001594,53.2143,270.3235,54.2324,145.4325,-0.00055067,-0.00022985,0.0,0 STARLINK-3194,1 49758U 21115AL  21346.91668981 -.00022985  00000-0 -55067-3 0  9991,2 49758  53.2143 270.3235 0001594  54.2324 145.4325 15.40467512  2791,6822.866,93.478,445.818,443.643,0.0
49758.0,STARLINK-3194,PAYLOAD,2021-12-13 14:00:01,15.40458088,0.0001516,53.2147,267.1817,50.82100000000001,247.9629,-0.00011184,-4.999e-05,0.0,0 STARLINK-3194,1 49758U 21115AL  21347.58334491 -.00004999  00000-0 -11184-3 0  9998,2 49758  53.2147 267.1817 0001516  50.8210 247.9629 15.40458088  2901,6822.893,93.479,445.793,443.724,0.0
49758.0,STARLINK-3194,PAYLOAD,2021-12-13 22:00:00,15.40489949,0.0001526,53.2149,265.6116,49.4786,298.8863,-0.0013782,-0.00056714,0.0,0 STARLINK-3194,1 49758U 21115AL  21347.91667824 -.00056714  00000-0 -13782-2 0  9991,2 49758  53.2149 265.6116 0001526  49.4786 298.8863 15.40489949  2142,6822.799,93.477,445.705,443.62300000000016,0.0
49758.0,STARLINK-3194,PAYLOAD,2021-12-14 14:00:01,15.40449603,0.000144,53.2152,262.4697,45.2131,42.3298,8.7833e-05,3.209e-05,0.0,0 STARLINK-3194,1 49758U 21115AL  21348.58334491  .00003209  00000-0  87833-4 0  9995,2 49758  53.2152 262.4697 0001440  45.2131  42.3298 15.40449603  2257,6822.918000000002,93.479,445.766,443.801,0.0
49758.0,STARLINK-3194,PAYLOAD,2021-12-14 22:00:00,15.40459963,0.0001539,53.2154,260.8998,44.5796,92.54,-0.00034923,-0.00014736,0.0,0 STARLINK-3194,1 49758U 21115AL  21348.91667824 -.00014736  00000-0 -34923-3 0  9991,2 49758  53.2154 260.8998 0001539  44.5796  92.5400 15.40459963  3100,6822.888000000001,93.479,445.80300000000005,443.703,0.0
49758.0,STARLINK-3194,PAYLOAD,2021-12-15 14:22:36,15.40429607,0.0001576999999999,53.2151,257.6839,47.1679,276.1703,0.0015261,0.00062806,0.0,0 STARLINK-3194,1 49758U 21115AL  21349.59902778  .00062806  00000-0  15261-2 0  9998,2 49758  53.2151 257.6839 0001577  47.1679 276.1703 15.40429607  3216,6822.977,93.48,445.918,443.766,0.0
49758.0,STARLINK-3194,PAYLOAD,2021-12-15 22:00:01,15.40491754,0.0001659,53.2151,256.1882,46.0198,239.9436,-0.0013353,-0.00054978,0.0,0 STARLINK-3194,1 49758U 21115AL  21349.91668981 -.00054978  00000-0 -13353-2 0  9992,2 49758  53.2151 256.1882 0001659  46.0198 239.9436 15.40491754  2450,6822.794,93.477,445.791,443.527,0.0
49758.0,STARLINK-3194,PAYLOAD,2021-12-16 06:00:00,15.40456972,0.0001726,53.2147,254.6185,39.2096,296.3022,0.0012599,0.00051752,0.0,0 STARLINK-3194,1 49758U 21115AL  21350.25001157  .00051752  00000-0  12599-2 0  9993,2 49758  53.2147 254.6185 0001726  39.2096 296.3022 15.40456972  3317,6822.897,93.479,445.939,443.584,0.0
49758.0,STARLINK-3194,PAYLOAD,2021-12-16 14:00:01,15.40469508,0.0001486999999999,53.2145,253.0461,45.5014,339.6302,0.00057505,0.00023323,0.0,0 STARLINK-3194,1 49758U 21115AL  21350.58334491  .00023323  00000-0  57505-3 0  9999,2 49758  53.2145 253.0461 0001487  45.5014 339.6302 15.40469508  2566,6822.86,93.478,445.739,443.71,0.0
49758.0,STARLINK-3194,PAYLOAD,2021-12-16 21:40:39,15.40467681,0.0001304,53.2148,251.5385,38.8203,321.2896,1.5782e-05,2.46e-06,0.0,0 STARLINK-3194,1 49758U 21115AL  21350.90323520  .00000246  00000-0  15782-4 0  9997,2 49758  53.2148 251.5385 0001304  38.8203 321.2896 15.40467681  2307,6822.865,93.478,445.62,443.84,0.0
49758.0,STARLINK-3194,PAYLOAD,2021-12-17 06:00:00,15.40457467,0.0001588,53.214,249.9069,33.8657,90.4152,-0.00021308,-9.154e-05,0.0,0 STARLINK-3194,1 49758U 21115AL  21351.25001157 -.00009154  00000-0 -21308-3 0  9994,2 49758  53.2140 249.9069 0001588  33.8657  90.4152 15.40457467  3460,6822.895,93.479,445.844,443.677,0.0
49758.0,STARLINK-3194,PAYLOAD,2021-12-17 21:02:03,15.40458577,0.0001512,53.2151,246.954,42.6035,317.5088,-2.5342e-05,-1.445e-05,0.0,0 STARLINK-3194,1 49758U 21115AL  21351.87643114 -.00001445  00000-0 -25342-4 0  9995,2 49758  53.2151 246.9540 0001512  42.6035 317.5088 15.40458577  2450,6822.892,93.479,445.789,443.725,0.0
49758.0,STARLINK-3194,PAYLOAD,2021-12-18 14:00:01,15.40415271,0.0001557,53.2138,243.623,50.1689,272.4204,0.001886,0.0007783,0.0,0 STARLINK-3194,1 49758U 21115AL  21352.58334491  .00077830  00000-0  18860-2 0  9993,2 49758  53.2138 243.6230 0001557  50.1689 272.4204 15.40415271  3671,6823.02,93.481,445.947,443.822,0.0
49758.0,STARLINK-3194,PAYLOAD,2021-12-18 21:56:52,15.40462585,0.0001592,53.2156,242.0627,42.6026,317.5103,2.8767e-05,7.8e-06,0.0,0 STARLINK-3194,1 49758U 21115AL  21352.91450224  .00000780  00000-0  28767-4 0  9992,2 49758  53.2156 242.0627 0001592  42.6026 317.5103 15.40462585  2616,6822.88,93.478,445.831,443.659,0.0
49758.0,STARLINK-3194,PAYLOAD,2021-12-19 06:00:00,15.40470237,0.0001745,53.2138,240.4836,41.4677,20.2769,0.00012,4.536e-05,0.0,0 STARLINK-3194,1 49758U 21115AL  21353.25001157  .00004536  00000-0  12000-3 0  9992,2 49758  53.2138 240.4836 0001745  41.4677  20.2769 15.40470237  3776,6822.857,93.478,445.913,443.532,0.0
49758.0,STARLINK-3194,PAYLOAD,2021-12-19 14:00:01,15.40448738,0.0001603,53.214,238.9112,49.8765,61.4857,0.0011184,0.00045846,0.0,0 STARLINK-3194,1 49758U 21115AL  21353.58334491  .00045846  00000-0  11184-2 0  9998,2 49758  53.2140 238.9112 0001603  49.8765  61.4857 15.40448738  3025,6822.920999999999,93.479,445.88,443.692,0.0
49758.0,STARLINK-3194,PAYLOAD,2021-12-19 21:18:16,15.40477415,0.0001511,53.2142,237.4765,46.7055,313.4076,0.00019827,7.763e-05,0.0,0 STARLINK-3194,1 49758U 21115AL  21353.88768903  .00007763  00000-0  19827-3 0  9999,2 49758  53.2142 237.4765 0001511  46.7055 313.4076 15.40477415  2768,6822.8359999999975,93.478,445.732,443.67,0.0
49758.0,STARLINK-3194,PAYLOAD,2021-12-20 14:00:01,15.40488909,0.0001551,53.2139,234.199,44.9875,215.2165,0.00099303,0.00040688,0.0,0 STARLINK-3194,1 49758U 21115AL  21354.58334491  .00040688  00000-0  99303-3 0  9998,2 49758  53.2139 234.1990 0001551  44.9875 215.2165 15.40488909  3974,6822.802,93.477,445.726,443.609,0.0
49758.0,STARLINK-3194,PAYLOAD,2021-12-20 20:39:38,15.40511431,0.0001676999999999,53.214,232.8921,39.2253,320.8874,0.00049245,0.00019934,0.0,0 STARLINK-3194,1 49758U 21115AL  21354.86086058  .00019934  00000-0  49245-3 0  9992,2 49758  53.2140 232.8921 0001677  39.2253 320.8874 15.40511431  2911,6822.736,93.475,445.745,443.457,0.0
49758.0,STARLINK-3194,PAYLOAD,2021-12-21 06:00:02,15.40526343,0.0001771999999999,53.2136,231.0591,37.7074,321.8156,-0.0026734,-0.00109026,0.0,0 STARLINK-3194,1 49758U 21115AL  21355.25002315 -.00109026  00000-0 -26734-2 0  9991,2 49758  53.2136 231.0591 0001772  37.7074 321.8156 15.40526343  4082,6822.691999999999,93.475,445.766,443.348,0.0
